*******************************************************************************
Ephemeris / WWW_USER Mon Mar 10 14:49:40 2025 Pasadena, USA      / Horizons    
*******************************************************************************
Target body name: (2017 SN16)                     {source: JPL#20}
Center body name: Earth (399)                     {source: DE441}
Center-site name: Gemini South Obs., Cerro Pachon
*******************************************************************************
Start time      : A.D. 2018-Aug-09 22:23:00.0000 UT      
Stop  time      : A.D. 2018-Aug-10 11:13:00.0000 UT      
Step-size       : 1 minutes
*******************************************************************************
Target pole/equ : undefined
Target radii    : undefined                                                    
Center geodetic : 289.2634, -30.2406227, 2.71233  {E-lon(deg),Lat(deg),Alt(km)}
Center cylindric: 289.2634,5517.21435,-3194.81213 {E-lon(deg),Dxy(km),Dz(km)}
Center pole/equ : ITRF93                          {East-longitude positive}
Center radii    : 6378.137, 6378.137, 6356.752 km {Equator_a, b, pole_c}       
Target primary  : Sun
Vis. interferer : MOON (R_eq= 1737.400) km        {source: DE441}
Rel. light bend : Sun                             {source: DE441}
Rel. lght bnd GM: 1.3271E+11 km^3/s^2                                          
Small-body perts: Yes                             {source: SB441-N16}
Atmos refraction: NO (AIRLESS)
RA format       : HMS
Time format     : CAL 
Calendar mode   : Mixed Julian/Gregorian
RTS-only print  : NO       
EOP file        : eop.250307.p250603                                           
EOP coverage    : DATA-BASED 1962-JAN-20 TO 2025-MAR-07. PREDICTS-> 2025-JUN-02
Units conversion: 1 au= 149597870.700 km, c= 299792.458 km/s, 1 day= 86400.0 s 
Table cut-offs 1: Elevation (-90.0deg=NO ),Airmass (>38.000=NO), Daylight (YES)
Table cut-offs 2: Solar elongation (  0.0,180.0=NO ),Local Hour Angle( 0.0=NO )
Table cut-offs 3: RA/DEC angular rate (     0.0=NO )                           
*******************************************************************************
Initial IAU76/J2000 heliocentric ecliptic osculating elements (au, days, deg.):
  EPOCH=  2458305.5 ! 2018-Jul-06.00 (TDB)         Residual RMS= .23751        
   EC= .1454884975659386   QR= .8682464985612274   TP= 2458145.5722438502      
   OM= 2.759719470837934   W=  137.1017088998531   IN= 13.38264682844635       
  Equivalent ICRF heliocentric cartesian coordinates (au, au/d):
   X= 5.756755401261899E-01  Y=-7.953424559592890E-01  Z=-6.031561894536019E-01
  VX= 1.332076113263395E-02 VY= 5.454663564585547E-03 VZ= 3.896229736425836E-03
Asteroid physical parameters (km, seconds, rotational period in hours):        
   GM= n.a.                RAD= n.a.               ROTPER= n.a.                
   H= 23.34                G= .150                 B-V= n.a.                   
                           ALBEDO= n.a.            STYP= n.a.                  
*******************************************************************************
 Date__(UT)__HR:MN     R.A._________(ICRF)_________DEC
******************************************************
$$SOE
 2018-Aug-10 06:35     01 50 03.546325 -27 49 13.99119
 2018-Aug-10 06:36     01 50 03.542407 -27 49 13.85452
 2018-Aug-10 06:37     01 50 03.538461 -27 49 13.71767
 2018-Aug-10 06:38     01 50 03.534486 -27 49 13.58063
 2018-Aug-10 06:39     01 50 03.530483 -27 49 13.44340
 2018-Aug-10 06:40     01 50 03.526451 -27 49 13.30598
 2018-Aug-10 06:41     01 50 03.522392 -27 49 13.16837
 2018-Aug-10 06:42     01 50 03.518304 -27 49 13.03057
 2018-Aug-10 06:43     01 50 03.514188 -27 49 12.89258
 2018-Aug-10 06:44     01 50 03.510045 -27 49 12.75439
 2018-Aug-10 06:45     01 50 03.505874 -27 49 12.61601
 2018-Aug-10 06:46     01 50 03.501676 -27 49 12.47744
 2018-Aug-10 06:47     01 50 03.497450 -27 49 12.33868
 2018-Aug-10 06:48     01 50 03.493197 -27 49 12.19971
 2018-Aug-10 06:49     01 50 03.488917 -27 49 12.06056
 2018-Aug-10 06:50     01 50 03.484611 -27 49 11.92121
 2018-Aug-10 06:51     01 50 03.480277 -27 49 11.78166
 2018-Aug-10 06:52     01 50 03.475917 -27 49 11.64191
 2018-Aug-10 06:53     01 50 03.471530 -27 49 11.50196
 2018-Aug-10 06:54     01 50 03.467117 -27 49 11.36182
 2018-Aug-10 06:55     01 50 03.462678 -27 49 11.22147
 2018-Aug-10 06:56     01 50 03.458212 -27 49 11.08093
 2018-Aug-10 06:57     01 50 03.453721 -27 49 10.94018
 2018-Aug-10 06:58     01 50 03.449204 -27 49 10.79923
 2018-Aug-10 06:59     01 50 03.444661 -27 49 10.65808
 2018-Aug-10 07:00     01 50 03.440093 -27 49 10.51673
 2018-Aug-10 07:01     01 50 03.435499 -27 49 10.37517
 2018-Aug-10 07:02     01 50 03.430880 -27 49 10.23341
 2018-Aug-10 07:03     01 50 03.426236 -27 49 10.09145
 2018-Aug-10 07:04     01 50 03.421568 -27 49 09.94928
 2018-Aug-10 07:05     01 50 03.416874 -27 49 09.80690
 2018-Aug-10 07:06     01 50 03.412156 -27 49 09.66432
 2018-Aug-10 07:07     01 50 03.407413 -27 49 09.52153
 2018-Aug-10 07:08     01 50 03.402646 -27 49 09.37853
 2018-Aug-10 07:09     01 50 03.397854 -27 49 09.23532
 2018-Aug-10 07:10     01 50 03.393039 -27 49 09.09191
 2018-Aug-10 07:11     01 50 03.388199 -27 49 08.94828
 2018-Aug-10 07:12     01 50 03.383336 -27 49 08.80445
 2018-Aug-10 07:13     01 50 03.378450 -27 49 08.66040
 2018-Aug-10 07:14     01 50 03.373539 -27 49 08.51614
 2018-Aug-10 07:15     01 50 03.368606 -27 49 08.37167
 2018-Aug-10 07:16     01 50 03.363649 -27 49 08.22699
 2018-Aug-10 07:17     01 50 03.358669 -27 49 08.08210
 2018-Aug-10 07:18     01 50 03.353667 -27 49 07.93699
 2018-Aug-10 07:19     01 50 03.348642 -27 49 07.79167
 2018-Aug-10 07:20     01 50 03.343594 -27 49 07.64613
 2018-Aug-10 07:21     01 50 03.338523 -27 49 07.50038
 2018-Aug-10 07:22     01 50 03.333431 -27 49 07.35441
 2018-Aug-10 07:23     01 50 03.328316 -27 49 07.20823
 2018-Aug-10 07:24     01 50 03.323180 -27 49 07.06183
 2018-Aug-10 07:25     01 50 03.318021 -27 49 06.91521
 2018-Aug-10 07:26     01 50 03.312841 -27 49 06.76837
 2018-Aug-10 07:27     01 50 03.307639 -27 49 06.62132
 2018-Aug-10 07:28     01 50 03.302416 -27 49 06.47404
 2018-Aug-10 07:29     01 50 03.297172 -27 49 06.32655
 2018-Aug-10 07:30     01 50 03.291907 -27 49 06.17884
 2018-Aug-10 07:31     01 50 03.286621 -27 49 06.03090
 2018-Aug-10 07:32     01 50 03.281314 -27 49 05.88275
 2018-Aug-10 07:33     01 50 03.275987 -27 49 05.73437
 2018-Aug-10 07:34     01 50 03.270639 -27 49 05.58578
 2018-Aug-10 07:35     01 50 03.265271 -27 49 05.43696
 2018-Aug-10 07:36     01 50 03.259883 -27 49 05.28791
 2018-Aug-10 07:37     01 50 03.254475 -27 49 05.13865
 2018-Aug-10 07:38     01 50 03.249047 -27 49 04.98916
 2018-Aug-10 07:39     01 50 03.243600 -27 49 04.83944
 2018-Aug-10 07:40     01 50 03.238133 -27 49 04.68950
 2018-Aug-10 07:41     01 50 03.232646 -27 49 04.53934
 2018-Aug-10 07:42     01 50 03.227141 -27 49 04.38895
 2018-Aug-10 07:43     01 50 03.221616 -27 49 04.23833
 2018-Aug-10 07:44     01 50 03.216073 -27 49 04.08749
 2018-Aug-10 07:45     01 50 03.210511 -27 49 03.93642
 2018-Aug-10 07:46     01 50 03.204931 -27 49 03.78512
 2018-Aug-10 07:47     01 50 03.199332 -27 49 03.63359
 2018-Aug-10 07:48     01 50 03.193715 -27 49 03.48184
 2018-Aug-10 07:49     01 50 03.188080 -27 49 03.32986
 2018-Aug-10 07:50     01 50 03.182427 -27 49 03.17764
 2018-Aug-10 07:51     01 50 03.176756 -27 49 03.02520
 2018-Aug-10 07:52     01 50 03.171068 -27 49 02.87253
 2018-Aug-10 07:53     01 50 03.165362 -27 49 02.71963
 2018-Aug-10 07:54     01 50 03.159640 -27 49 02.56649
 2018-Aug-10 07:55     01 50 03.153900 -27 49 02.41313
 2018-Aug-10 07:56     01 50 03.148143 -27 49 02.25953
 2018-Aug-10 07:57     01 50 03.142369 -27 49 02.10570
 2018-Aug-10 07:58     01 50 03.136579 -27 49 01.95164
 2018-Aug-10 07:59     01 50 03.130773 -27 49 01.79734
 2018-Aug-10 08:00     01 50 03.124950 -27 49 01.64282
 2018-Aug-10 08:01     01 50 03.119111 -27 49 01.48806
 2018-Aug-10 08:02     01 50 03.113257 -27 49 01.33306
 2018-Aug-10 08:03     01 50 03.107386 -27 49 01.17783
 2018-Aug-10 08:04     01 50 03.101500 -27 49 01.02237
 2018-Aug-10 08:05     01 50 03.095599 -27 49 00.86667
 2018-Aug-10 08:06     01 50 03.089682 -27 49 00.71073
 2018-Aug-10 08:07     01 50 03.083750 -27 49 00.55456
 2018-Aug-10 08:08     01 50 03.077803 -27 49 00.39815
 2018-Aug-10 08:09     01 50 03.071842 -27 49 00.24151
 2018-Aug-10 08:10     01 50 03.065866 -27 49 00.08463
 2018-Aug-10 08:11     01 50 03.059875 -27 48 59.92751
 2018-Aug-10 08:12     01 50 03.053871 -27 48 59.77016
 2018-Aug-10 08:13     01 50 03.047852 -27 48 59.61256
 2018-Aug-10 08:14     01 50 03.041819 -27 48 59.45473
 2018-Aug-10 08:15     01 50 03.035773 -27 48 59.29666
 2018-Aug-10 08:16     01 50 03.029713 -27 48 59.13835
 2018-Aug-10 08:17     01 50 03.023639 -27 48 58.97981
 2018-Aug-10 08:18     01 50 03.017552 -27 48 58.82102
 2018-Aug-10 08:19     01 50 03.011453 -27 48 58.66199
 2018-Aug-10 08:20     01 50 03.005340 -27 48 58.50273
 2018-Aug-10 08:21     01 50 02.999214 -27 48 58.34322
 2018-Aug-10 08:22     01 50 02.993076 -27 48 58.18347
 2018-Aug-10 08:23     01 50 02.986926 -27 48 58.02349
 2018-Aug-10 08:24     01 50 02.980763 -27 48 57.86326
 2018-Aug-10 08:25     01 50 02.974589 -27 48 57.70279
 2018-Aug-10 08:26     01 50 02.968402 -27 48 57.54207
 2018-Aug-10 08:27     01 50 02.962204 -27 48 57.38112
 2018-Aug-10 08:28     01 50 02.955994 -27 48 57.21992
 2018-Aug-10 08:29     01 50 02.949773 -27 48 57.05849
 2018-Aug-10 08:30     01 50 02.943540 -27 48 56.89681
 2018-Aug-10 08:31     01 50 02.937297 -27 48 56.73488
 2018-Aug-10 08:32     01 50 02.931042 -27 48 56.57272
 2018-Aug-10 08:33     01 50 02.924777 -27 48 56.41030
 2018-Aug-10 08:34     01 50 02.918502 -27 48 56.24765
 2018-Aug-10 08:35     01 50 02.912216 -27 48 56.08475
 2018-Aug-10 08:36     01 50 02.905920 -27 48 55.92161
 2018-Aug-10 08:37     01 50 02.899614 -27 48 55.75823
